ORBVIEW 2 (SEASTAR)     
1 24883U 97037A   25326.42162461  .00000336  00000+0  13323-3 0  9991
2 24883  98.8452 122.9860 0002649  38.7354 321.4020 14.35395009493087
SL-16 R/B               
1 25400U 98043G   25326.80142712  .00000081  00000+0  53009-4 0  9997
2 25400  98.8093 274.5112 0009311 330.3791  29.6860 14.26018339423751
SL-16 R/B               
1 25407U 98045B   25326.63403338  .00000136  00000+0  92970-4 0  9992
2 25407  71.0124  46.7075 0008160 204.9714 155.1016 14.16169144411941
ISS (ZARYA)             
1 25544U 98067A   25326.28671477  .00015903  00000+0  29634-3 0  9994
2 25544  51.6321 243.7129 0003927 154.7163 205.4019 15.48986583539685
CZ-4B R/B               
1 25732U 99025C   25326.65215149  .00000085  00000+0  62041-4 0  9994
2 25732  98.6797   8.3787 0036083 293.3947 176.8023 14.18236398372999
OKEAN-O                 
1 25860U 99039A   25326.64402640  .00000760  00000+0  10704-3 0  9992
2 25860  97.9630  22.5172 0001137  68.6530 291.4803 14.80111428418556
SL-16 R/B               
1 25861U 99039B   25326.72600492  .00000667  00000+0  91864-4 0  9990
2 25861  98.0153  20.8733 0013623 242.1045 117.8789 14.81544049421026
DELTA 2 R/B             
1 25876U 99041E   25326.67317080  .00000988  00000+0  19882-3 0  9996
2 25876  51.7630   8.5448 0504895  32.6356 330.4741 14.11328096347918
HELIOS 1B               
1 25977U 99064A   25326.75388177  .00001688  00000+0  19420-3 0  9993
2 25977  98.1753 220.8284 0002478  70.1610 289.9872 14.87162723669363
TERRA                   
1 25994U 99068A   25326.74425086  .00000538  00000+0  11891-3 0  9993
2 25994  97.9775  19.1591 0002990 138.8490 331.6876 14.60918990379464
SL-16 R/B               
1 26070U 00006B   25326.40973665 -.00000028  00000+0  10155-4 0  9995
2 26070  71.0018 323.4048 0017360 337.1754  22.8595 14.15801195333370
TITAN 4B R/B            
1 26474U 00047B   25326.65492145  .00003546  00000+0  23062-3 0  9991
2 26474  67.9901 341.2551 0040695 168.3935 191.8163 15.08572975376764
