CCSDS_OMM_VERS = 2.0
CREATION_DATE  = 
ORIGINATOR     = 

OBJECT_NAME    = ORBVIEW 2 (SEASTAR)
OBJECT_ID      = 1997-037A
CENTER_NAME    = EARTH
REF_FRAME      = TEME
TIME_SYSTEM    = UTC
MEAN_ELEMENT_THEORY = SGP/SGP4

EPOCH          = 2025-11-22T10:07:08.366304
MEAN_MOTION    = 14.35395009
ECCENTRICITY   = .0002649
INCLINATION    = 98.8452
RA_OF_ASC_NODE = 122.9860
ARG_OF_PERICENTER = 38.7354
MEAN_ANOMALY   = 321.4020

EPHEMERIS_TYPE = 0
CLASSIFICATION_TYPE = U
NORAD_CAT_ID   = 24883
ELEMENT_SET_NO = 999
REV_AT_EPOCH   = 49308
BSTAR          = .13323E-3
MEAN_MOTION_DOT = .336E-5
MEAN_MOTION_DDOT = 0

CCSDS_OMM_VERS = 2.0
CREATION_DATE  = 
ORIGINATOR     = 

OBJECT_NAME    = SL-16 R/B
OBJECT_ID      = 1998-043G
CENTER_NAME    = EARTH
REF_FRAME      = TEME
TIME_SYSTEM    = UTC
MEAN_ELEMENT_THEORY = SGP/SGP4

EPOCH          = 2025-11-22T19:14:03.303168
MEAN_MOTION    = 14.26018339
ECCENTRICITY   = .0009311
INCLINATION    = 98.8093
RA_OF_ASC_NODE = 274.5112
ARG_OF_PERICENTER = 330.3791
MEAN_ANOMALY   = 29.6860

EPHEMERIS_TYPE = 0
CLASSIFICATION_TYPE = U
NORAD_CAT_ID   = 25400
ELEMENT_SET_NO = 999
REV_AT_EPOCH   = 42375
BSTAR          = .53009E-4
MEAN_MOTION_DOT = .81E-6
MEAN_MOTION_DDOT = 0

CCSDS_OMM_VERS = 2.0
CREATION_DATE  = 
ORIGINATOR     = 

OBJECT_NAME    = SL-16 R/B
OBJECT_ID      = 1998-045B
CENTER_NAME    = EARTH
REF_FRAME      = TEME
TIME_SYSTEM    = UTC
MEAN_ELEMENT_THEORY = SGP/SGP4

EPOCH          = 2025-11-22T15:13:00.484032
MEAN_MOTION    = 14.16169144
ECCENTRICITY   = .000816
INCLINATION    = 71.0124
RA_OF_ASC_NODE = 46.7075
ARG_OF_PERICENTER = 204.9714
MEAN_ANOMALY   = 155.1016

EPHEMERIS_TYPE = 0
CLASSIFICATION_TYPE = U
NORAD_CAT_ID   = 25407
ELEMENT_SET_NO = 999
REV_AT_EPOCH   = 41194
BSTAR          = .9297E-4
MEAN_MOTION_DOT = .136E-5
MEAN_MOTION_DDOT = 0

CCSDS_OMM_VERS = 2.0
CREATION_DATE  = 
ORIGINATOR     = 

OBJECT_NAME    = ISS (ZARYA)
OBJECT_ID      = 1998-067A
CENTER_NAME    = EARTH
REF_FRAME      = TEME
TIME_SYSTEM    = UTC
MEAN_ELEMENT_THEORY = SGP/SGP4

EPOCH          = 2025-11-22T06:52:52.156128
MEAN_MOTION    = 15.48986583
ECCENTRICITY   = .00039276
INCLINATION    = 51.6321
RA_OF_ASC_NODE = 243.7129
ARG_OF_PERICENTER = 154.7163
MEAN_ANOMALY   = 205.4019

EPHEMERIS_TYPE = 0
CLASSIFICATION_TYPE = U
NORAD_CAT_ID   = 25544
ELEMENT_SET_NO = 999
REV_AT_EPOCH   = 53968
BSTAR          = .29633503E-3
MEAN_MOTION_DOT = .15903E-3
MEAN_MOTION_DDOT = 0

CCSDS_OMM_VERS = 2.0
CREATION_DATE  = 
ORIGINATOR     = 

OBJECT_NAME    = CZ-4B R/B
OBJECT_ID      = 1999-025C
CENTER_NAME    = EARTH
REF_FRAME      = TEME
TIME_SYSTEM    = UTC
MEAN_ELEMENT_THEORY = SGP/SGP4

EPOCH          = 2025-11-22T15:39:05.888736
MEAN_MOTION    = 14.18236398
ECCENTRICITY   = .0036083
INCLINATION    = 98.6797
RA_OF_ASC_NODE = 8.3787
ARG_OF_PERICENTER = 293.3947
MEAN_ANOMALY   = 176.8023

EPHEMERIS_TYPE = 0
CLASSIFICATION_TYPE = U
NORAD_CAT_ID   = 25732
ELEMENT_SET_NO = 999
REV_AT_EPOCH   = 37299
BSTAR          = .62041E-4
MEAN_MOTION_DOT = .85E-6
MEAN_MOTION_DDOT = 0

CCSDS_OMM_VERS = 2.0
CREATION_DATE  = 
ORIGINATOR     = 

OBJECT_NAME    = OKEAN-O
OBJECT_ID      = 1999-039A
CENTER_NAME    = EARTH
REF_FRAME      = TEME
TIME_SYSTEM    = UTC
MEAN_ELEMENT_THEORY = SGP/SGP4

EPOCH          = 2025-11-22T15:27:23.880960
MEAN_MOTION    = 14.80111428
ECCENTRICITY   = .0001137
INCLINATION    = 97.9630
RA_OF_ASC_NODE = 22.5172
ARG_OF_PERICENTER = 68.6530
MEAN_ANOMALY   = 291.4803

EPHEMERIS_TYPE = 0
CLASSIFICATION_TYPE = U
NORAD_CAT_ID   = 25860
ELEMENT_SET_NO = 999
REV_AT_EPOCH   = 41855
BSTAR          = .10704E-3
MEAN_MOTION_DOT = .76E-5
MEAN_MOTION_DDOT = 0

CCSDS_OMM_VERS = 2.0
CREATION_DATE  = 
ORIGINATOR     = 

OBJECT_NAME    = SL-16 R/B
OBJECT_ID      = 1999-039B
CENTER_NAME    = EARTH
REF_FRAME      = TEME
TIME_SYSTEM    = UTC
MEAN_ELEMENT_THEORY = SGP/SGP4

EPOCH          = 2025-11-22T17:25:26.825088
MEAN_MOTION    = 14.81544049
ECCENTRICITY   = .0013623
INCLINATION    = 98.0153
RA_OF_ASC_NODE = 20.8733
ARG_OF_PERICENTER = 242.1045
MEAN_ANOMALY   = 117.8789

EPHEMERIS_TYPE = 0
CLASSIFICATION_TYPE = U
NORAD_CAT_ID   = 25861
ELEMENT_SET_NO = 999
REV_AT_EPOCH   = 42102
BSTAR          = .91864E-4
MEAN_MOTION_DOT = .667E-5
MEAN_MOTION_DDOT = 0

CCSDS_OMM_VERS = 2.0
CREATION_DATE  = 
ORIGINATOR     = 

OBJECT_NAME    = DELTA 2 R/B
OBJECT_ID      = 1999-041E
CENTER_NAME    = EARTH
REF_FRAME      = TEME
TIME_SYSTEM    = UTC
MEAN_ELEMENT_THEORY = SGP/SGP4

EPOCH          = 2025-11-22T16:09:21.957120
MEAN_MOTION    = 14.11328096
ECCENTRICITY   = .0504895
INCLINATION    = 51.7630
RA_OF_ASC_NODE = 8.5448
ARG_OF_PERICENTER = 32.6356
MEAN_ANOMALY   = 330.4741

EPHEMERIS_TYPE = 0
CLASSIFICATION_TYPE = U
NORAD_CAT_ID   = 25876
ELEMENT_SET_NO = 999
REV_AT_EPOCH   = 34791
BSTAR          = .19882E-3
MEAN_MOTION_DOT = .988E-5
MEAN_MOTION_DDOT = 0

CCSDS_OMM_VERS = 2.0
CREATION_DATE  = 
ORIGINATOR     = 

OBJECT_NAME    = HELIOS 1B
OBJECT_ID      = 1999-064A
CENTER_NAME    = EARTH
REF_FRAME      = TEME
TIME_SYSTEM    = UTC
MEAN_ELEMENT_THEORY = SGP/SGP4

EPOCH          = 2025-11-22T18:05:35.384928
MEAN_MOTION    = 14.87162723
ECCENTRICITY   = .0002478
INCLINATION    = 98.1753
RA_OF_ASC_NODE = 220.8284
ARG_OF_PERICENTER = 70.1610
MEAN_ANOMALY   = 289.9872

EPHEMERIS_TYPE = 0
CLASSIFICATION_TYPE = U
NORAD_CAT_ID   = 25977
ELEMENT_SET_NO = 999
REV_AT_EPOCH   = 66936
BSTAR          = .1942E-3
MEAN_MOTION_DOT = .1688E-4
MEAN_MOTION_DDOT = 0

CCSDS_OMM_VERS = 2.0
CREATION_DATE  = 
ORIGINATOR     = 

OBJECT_NAME    = TERRA
OBJECT_ID      = 1999-068A
CENTER_NAME    = EARTH
REF_FRAME      = TEME
TIME_SYSTEM    = UTC
MEAN_ELEMENT_THEORY = SGP/SGP4

EPOCH          = 2025-11-22T17:51:43.274304
MEAN_MOTION    = 14.60918990
ECCENTRICITY   = .000299
INCLINATION    = 97.9775
RA_OF_ASC_NODE = 19.1591
ARG_OF_PERICENTER = 138.8490
MEAN_ANOMALY   = 331.6876

EPHEMERIS_TYPE = 0
CLASSIFICATION_TYPE = U
NORAD_CAT_ID   = 25994
ELEMENT_SET_NO = 999
REV_AT_EPOCH   = 37946
BSTAR          = .11891E-3
MEAN_MOTION_DOT = .538E-5
MEAN_MOTION_DDOT = 0

CCSDS_OMM_VERS = 2.0
CREATION_DATE  = 
ORIGINATOR     = 

OBJECT_NAME    = SL-16 R/B
OBJECT_ID      = 2000-006B
CENTER_NAME    = EARTH
REF_FRAME      = TEME
TIME_SYSTEM    = UTC
MEAN_ELEMENT_THEORY = SGP/SGP4

EPOCH          = 2025-11-22T09:50:01.246560
MEAN_MOTION    = 14.15801195
ECCENTRICITY   = .00173604
INCLINATION    = 71.0018
RA_OF_ASC_NODE = 323.4048
ARG_OF_PERICENTER = 337.1754
MEAN_ANOMALY   = 22.8595

EPHEMERIS_TYPE = 0
CLASSIFICATION_TYPE = U
NORAD_CAT_ID   = 26070
ELEMENT_SET_NO = 999
REV_AT_EPOCH   = 33337
BSTAR          = .10155431E-4
MEAN_MOTION_DOT = -.28E-6
MEAN_MOTION_DDOT = 0

CCSDS_OMM_VERS = 2.0
CREATION_DATE  = 
ORIGINATOR     = 

OBJECT_NAME    = TITAN 4B R/B
OBJECT_ID      = 2000-047B
CENTER_NAME    = EARTH
REF_FRAME      = TEME
TIME_SYSTEM    = UTC
MEAN_ELEMENT_THEORY = SGP/SGP4

EPOCH          = 2025-11-22T15:43:05.213280
MEAN_MOTION    = 15.08572975
ECCENTRICITY   = .0040695
INCLINATION    = 67.9901
RA_OF_ASC_NODE = 341.2551
ARG_OF_PERICENTER = 168.3935
MEAN_ANOMALY   = 191.8163

EPHEMERIS_TYPE = 0
CLASSIFICATION_TYPE = U
NORAD_CAT_ID   = 26474
ELEMENT_SET_NO = 999
REV_AT_EPOCH   = 37676
BSTAR          = .23062E-3
MEAN_MOTION_DOT = .3546E-4
MEAN_MOTION_DDOT = 0

